0 FENGYUN 1C DEB
1 31720U 99025CDT 20073.59337900  .00000279  00000-0  73082-4 0  9998
2 31720  99.0786 126.7387 0134357  17.0057 343.5575 14.52976991677589
0 FENGYUN 1C DEB
1 31721U 99025CDU 20073.58562528  .00000025  00000-0  54573-4 0  9997
2 31721  99.5548   9.7924 0327024 209.4480 327.1671 13.70321846638933
0 FENGYUN 1C DEB
1 31724U 99025CDX 20073.77378785  .00000996  00000-0  41239-3 0  9992
2 31724  97.8750 259.8085 0217936  16.7672 344.0564 14.16456057661906
0 FENGYUN 1C DEB
1 31739U 99025CEN 20073.82044328 -.00000008  00000-0  17375-4 0  9997
2 31739  99.0225  96.3808 0128608 321.7468  37.4634 14.18114804661161
0 FENGYUN 1C DEB
1 31755U 99025CFE 20073.84370615  .00000058  00000-0  52175-4 0  9999
2 31755  98.8206 102.4144 0196305 168.4438   5.1974 14.05207601667180
0 FENGYUN 1C DEB
1 31758U 99025CFH 20073.74783620  .00000990  00000-0  26312-3 0  9993
2 31758  98.1217 242.6857 0477330  60.2996 304.4803 13.99289955648497
0 FENGYUN 1C DEB
1 31760U 99025CFK 20073.57646832  .00000274  00000-0  13919-3 0  9994
2 31760  99.2670  16.7295 0058953  74.7875 285.9810 14.23588987664127
0 SL-24 DEB
1 31791U 07028C   20073.49652949 -.00000078  00000-0  10170-4 0  9997
2 31791  64.5225 121.9329 0852899 208.6999 146.4470 13.25160925614920
0 COSMOS 2428
1 31792U 07029A   20073.52811358 -.00000236  00000-0 -10201-3 0  9995
2 31792  70.9213 114.3818 0008317 226.3487 133.6945 14.12378359655328
0 FENGYUN 1C DEB
1 31813U 99025CHB 20073.76725783  .00000141  00000-0  54037-4 0  9997
2 31813  99.4826 253.9309 0154509   4.9318 355.3347 14.41333493678518
0 FENGYUN 1C DEB
1 31820U 99025CHJ 20073.61592488  .00000773  00000-0  12919-3 0  9996
2 31820  98.9592  33.0609 0259994 344.7186  14.6260 14.53573055675331
0 FENGYUN 1C DEB
1 31841U 99025CJF 20073.60708617  .00000777  00000-0  40843-3 0  9992
2 31841  98.4967  25.3174 0355283  25.8648 146.3763 13.88787452647643
0 FENGYUN 1C DEB
1 31843U 99025CJH 20073.64706815  .00000428  00000-0  33913-3 0  9999
2 31843  99.2525 219.2313 0718480  15.5425 346.6553 13.13445409621582
0 FENGYUN 1C DEB
1 31852U 99025CJS 20073.79187545  .00002125  00000-0  38098-3 0  9993
2 31852  98.7567 272.6658 0446224 225.0721 131.3439 14.19175412648119
0 BREEZE-M R/B
1 31864U 07032C   20073.53660319 -.00000170  00000-0  00000+0 0  9997
2 31864  21.6192 337.0131 5771364 139.1983 285.1930  2.01199749 93248
0 CBERS 1 DEB
1 31873U 99057PY  20073.70971258  .00001126  00000-0  25176-3 0  9997
2 31873  98.4344  64.9487 0003964 308.9669 223.6897 14.58684281675403
0 FENGYUN 1C DEB
1 31892U 99025CKT 20073.81324737  .00000084  00000-0  41664-4 0  9992
2 31892  99.3081  66.0574 0226082 259.6712  97.8913 14.31234408663614
0 FENGYUN 1C DEB
1 31898U 99025CKZ 20073.55259986  .00000351  00000-0  89744-4 0  9990
2 31898  98.6048 194.4923 0204927 118.7227 243.4726 14.44944779672949
0 FENGYUN 1C DEB
1 31903U 99025CLE 20073.77331453  .00000333  00000-0  92374-4 0  9994
2 31903  99.2225 185.5953 0160131 174.6378 185.6574 14.46970125672382
0 FENGYUN 1C DEB
1 31924U 99025CMB 20073.67216625  .00000539  00000-0  61600-3 0  9994
2 31924  98.4155 138.4931 0291141 216.4915 300.3888 13.56884912630824
0 FENGYUN 1C DEB
1 31926U 99025CMD 20073.62434053  .00000608  00000-0  35303-3 0  9996
2 31926  99.0439 115.7676 0049483 109.0915  51.1320 14.11949231655545
0 TBA - TO BE ASSIGNED
1 31929U 99025CME 20073.56080037  .00000129  00000-0  66590-4 0  9992
2 31929  98.6754 171.8265 0082421  89.6409 271.4216 14.28502858667676
0 FENGYUN 1C DEB
1 31944U 99025CMV 20073.52135712  .00000333  00000-0  20470-3 0  9999
2 31944  99.0412 176.2270 0165648 102.9833 321.4102 14.05571621663199
0 FENGYUN 1C DEB
1 31965U 99025CNS 20073.55758929  .00000891  00000-0  44468-3 0  9998
2 31965  99.0216 184.7047 0039067  12.4337 347.7793 14.19138548657113
0 FENGYUN 1C DEB
1 31979U 99025CPG 20073.64576713  .00000956  00000-0  10622-2 0  9998
2 31979  99.3711 222.0743 0297563 256.2600 100.5257 13.56656934630618
0 FENGYUN 1C DEB
1 31991U 99025CPU 20073.81611486 -.00000018  00000-0  36064-4 0  9998
2 31991 100.4882  93.6823 0246013 192.0362 167.4828 13.60586382631770
0 CBERS 2B
1 32062U 07042A   20073.73779556  .00000024  00000-0  20505-4 0  9999
2 32062  98.1054  69.9336 0032594  35.7190 324.6185 14.39735481655613
0 CBERS 1 DEB
1 32072U 99057QL  20073.73570897  .00001247  00000-0  25096-3 0  9991
2 32072  98.4049  75.2445 0007481 266.3524  93.6822 14.63357258671508
0 CBERS 1 DEB
1 32075U 99057QP  20073.77696508  .00013950  00000-0  72319-3 0  9990
2 32075  98.2040 193.1446 0001893 178.2856 181.8382 15.16302656678555
0 CBERS 1 DEB
1 32082U 99057QW  20073.56814772  .00008287  00000-0  57050-3 0  9992
2 32082  98.2178 180.7743 0000665 196.5414 163.5789 15.06163260679370
0 FENGYUN 1C DEB
1 32087U 99025CQD 20073.64099081  .00003049  00000-0  39250-3 0  9992
2 32087  98.6270 209.4625 0097538 293.4825  65.6156 14.78670816669162
0 FENGYUN 1C DEB
1 32093U 99025CQK 20073.78881725  .00000142  00000-0  67875-4 0  9994
2 32093  98.7963 199.2652 0086748  24.1822 336.3396 14.31532153665308
0 FENGYUN 1C DEB
1 32102U 99025CQU 20073.68076343  .00007364  00000-0  81248-3 0  9998
2 32102  99.3400 141.2433 0100288  71.6429  78.4958 14.84215513659253
0 FENGYUN 1C DEB
1 32110U 99025CRC 20073.69347648  .00000538  00000-0  30153-3 0  9992
2 32110  99.5579  59.1277 0040405 129.8663  43.0208 14.14941735651189
0 FENGYUN 1C DEB
1 32124U 99025CRS 20073.54118853  .00007257  00000-0  27654-3 0  9992
2 32124  98.9994   8.4641 0063887 307.0198  52.5200 15.25214426688722
0 FENGYUN 1C DEB
1 32125U 99025CRT 20073.76835838  .00000237  00000-0  73720-4 0  9993
2 32125  99.1341 263.1691 0292324  32.9195 328.9820 14.29234265665042
0 FENGYUN 1C DEB
1 32129U 99025CRX 20073.64584733  .00000796  00000-0  48045-3 0  9990
2 32129  99.1034 136.4581 0096640 194.3340 325.8777 14.07312441646486
0 FENGYUN 1C DEB
1 32146U 99025CSQ 20073.69504938  .00000483  00000-0  21776-3 0  9998
2 32146  98.8633 162.8682 0123639 102.8081 258.6945 14.22652505653221
0 TBA - TO BE ASSIGNED
1 32155U 99025CSZ 20073.78840459  .00000136  00000-0  72855-4 0  9999
2 32155  99.1008 268.2846 0075746 205.6107 154.1312 14.27326313659538
0 FENGYUN 1C DEB
1 32162U 99025CTG 20073.60667074  .00000579  00000-0  20078-3 0  9998
2 32162  99.4600 211.5390 0070282 210.4849 149.2241 14.38577056660531
0 FENGYUN 1C DEB
1 32163U 99025CTH 20073.58536913  .00000314  00000-0  13635-3 0  9991
2 32163  99.5074 198.0809 0060397 314.8411  44.7870 14.31043455658035
0 FENGYUN 1C DEB
1 32170U 99025CTQ 20073.73979996  .00005974  00000-0  49877-3 0  9992
2 32170  99.0951 248.7008 0050668 131.2487 229.3113 14.98031339678674
0 FENGYUN 1C DEB
1 32186U 99025CUG 20073.76827372  .00000113  00000-0  13230-3 0  9996
2 32186  99.7194  66.9013 0284479 236.7533 299.7742 13.72089738633773
0 FENGYUN 1C DEB
1 32198U 99025CUU 20073.54325939  .00001043  00000-0  73868-3 0  9993
2 32198  98.3630  14.2762 0105804  98.7478 262.5687 13.97045921651231
0 FENGYUN 1C DEB
1 32216U 99025CVN 20073.56847653  .00000897  00000-0  33070-3 0  9995
2 32216  99.5328 194.7038 0051344 325.5986  34.1875 14.34668878657202
0 FENGYUN 1C DEB
1 32218U 99025CVQ 20073.54305648  .00000135  00000-0  57676-4 0  9992
2 32218  98.6479 185.3520 0084297 224.9456 196.9988 14.38079950660948
0 FENGYUN 1C DEB
1 32245U 99025CWT 20073.73545087  .00000399  00000-0  10697-3 0  9999
2 32245  98.5050 181.7356 0153343 295.5183  63.0219 14.47333600668448
0 OPTUS D2
1 32252U 07044A   20073.75397670 -.00000203  00000-0  00000+0 0  9990
2 32252   0.0331 282.9941 0003724  74.2553 237.9988  1.00271336 45514
0 WGS F1 (USA 195)
1 32258U 07046A   20073.75123281  .00000021  00000-0  00000+0 0  9990
2 32258   0.0151 138.0295 0000935 279.1424  31.0537  1.00270774 45391
0 DELTA 2 R/B(2) (PAM-D)
1 32261U 07047B   20073.75209415  .00183902  19754-5  39786-3 0  9997
2 32261  39.6530   0.1298 1365662 259.6925  84.7474 13.10915662326222
0 GLOBALSTAR M067
1 32263U 07048A   20073.81447737 -.00000104  00000-0 -46705-4 0  9991
2 32263  51.9714 257.5083 0000949 158.2392 214.9602 12.40590279571249
0 GLOBALSTAR M068
1 32266U 07048D   20073.64758152 -.00000118  00000-0 -76268-4 0  9993
2 32266  51.9901  39.0073 0000820 168.9872   2.1215 12.62711393575080
0 COSMOS 2432 (GLONASS)
1 32276U 07052B   20073.63499682 -.00000045  00000-0  10000-3 0  9997
2 32276  65.9646  32.1993 0012741 324.2939 305.7077  2.13103732 96367
0 YAOGAN 3
1 32289U 07055A   20073.70119179 -.00000079  00000-0 -33657-5 0  9995
2 32289  97.9967  88.7883 0001287  82.1892 277.9436 14.81002330666810
0 ASTRA 4A (SIRIUS 4)
1 32299U 07057A   20073.29393329  .00000013  00000-0  00000+0 0  9999
2 32299   0.0524 299.3010 0002976  58.3416 284.3342  1.00272614 45023
0 FENGYUN 1C DEB
1 32305U 99025CWW 20073.56062708  .00000787  00000-0  47630-3 0  9999
2 32305  98.0166 183.7603 0213741 349.8146   9.8723 13.98122308629504
0 FENGYUN 1C DEB
1 32316U 99025CXH 20073.81711833  .00000311  00000-0  13115-3 0  9993
2 32316  99.5170 204.0111 0043680 302.4033 214.6317 14.33115869661337
0 TBA - TO BE ASSIGNED
1 32324U 99025CXR 20073.57322599  .00000398  00000-0  27156-3 0  9997
2 32324  99.5632  24.3516 0053553  23.2750 337.0824 14.05484576651521
0 FENGYUN 1C DEB
1 32331U 99025CXY 20073.71809644  .00001094  00000-0  53669-3 0  9994
2 32331  99.2202 248.2178 0040990  80.7179 279.8628 14.19565774652165
0 FENGYUN 1C DEB
1 32338U 99025CYF 20073.60661754  .00000482  00000-0  18860-3 0  9991
2 32338  98.8833 214.0875 0070445  22.9725 337.4583 14.32825572657554
0 TBA - TO BE ASSIGNED
1 32353U 99025CYW 20073.84693201  .00000368  00000-0  31300-3 0  9993
2 32353  98.9827 293.8967 0143551 193.4700 166.2609 13.88871370642163
